QZS-1R (QZSS/PRN 196)   
1 49336U 21096A   26087.85506473 -.00000231  00000+0  00000+0 0  9999
2 49336  37.2973  80.7659 0749326 270.2513 278.3326  1.00282480 16209
